[{"OBJECT_NAME":"STARLINK-2139","OBJECT_ID":"2021-041B","EPOCH":"2026-03-09T10:53:26.839968","MEAN_MOTION":15.30202762,"ECCENTRICITY":0.00012873,"INCLINATION":53.1615,"RA_OF_ASC_NODE":127.7973,"ARG_OF_PERICENTER":99.9388,"MEAN_ANOMALY":260.1758,"EPHEMERIS_TYPE":0,"CLASSIFICATION_TYPE":"U","NORAD_CAT_ID":48554,"ELEMENT_SET_NO":999,"REV_AT_EPOCH":26524,"BSTAR":-2.4509264e-5,"MEAN_MOTION_DOT":-1.085e-5,"MEAN_MOTION_DDOT":0},{"OBJECT_NAME":"KUIPER-00213","OBJECT_ID":"2026-030P","EPOCH":"2026-03-09T22:00:01.999584","MEAN_MOTION":15.32626943,"ECCENTRICITY":0.00152813,"INCLINATION":51.8816,"RA_OF_ASC_NODE":218.5142,"ARG_OF_PERICENTER":64.2462,"MEAN_ANOMALY":206.8369,"EPHEMERIS_TYPE":0,"CLASSIFICATION_TYPE":"U","NORAD_CAT_ID":67777,"ELEMENT_SET_NO":999,"REV_AT_EPOCH":502,"BSTAR":0.0016072376,"MEAN_MOTION_DOT":0.00051551,"MEAN_MOTION_DDOT":0}]
